NORAD_CAT_ID,OBJECT_NAME,OBJECT_TYPE,EPOCH,MEAN_MOTION,ECCENTRICITY,INCLINATION,RA_OF_ASC_NODE,ARG_OF_PERICENTER,MEAN_ANOMALY,BSTAR,MEAN_MOTION_DOT,MEAN_MOTION_DDOT,TLE_LINE0,TLE_LINE1,TLE_LINE2,SEMIMAJOR_AXIS,PERIOD,APOGEE,PERIGEE,DECAYED
54079.0,STARLINK-5175,PAYLOAD,2023-05-17 14:08:32,15.0883392,9.9e-05,53.2169,265.1773,80.8843,279.2261,5.5379e-05,5.94e-06,0.0,0 STARLINK-5175,1 54079U 22136AE  23137.58927046  .00000594  00000-0  55379-4 0  9997,2 54079  53.2169 265.1773 0000990  80.8843 279.2261 15.08833920 32400,6917.899,95.438,540.449,539.079,0.0
54079.0,STARLINK-5175,PAYLOAD,2023-05-18 12:23:56,15.08836226,0.0001105,53.217,261.0146,108.4588,251.6525,0.0001646,2.333e-05,0.0,0 STARLINK-5175,1 54079U 22136AE  23138.51662634  .00002333  00000-0  16460-3 0  9990,2 54079  53.2170 261.0146 0001105 108.4588 251.6525 15.08836226 32064,6917.892,95.438,540.521,538.992,0.0
54079.0,STARLINK-5175,PAYLOAD,2023-05-18 17:10:07,15.08779963,0.0001661,53.2174,260.1222,108.749,251.3682,0.0010839,0.00016976,0.0,0 STARLINK-5175,1 54079U 22136AE  23138.71536197  .00016976  00000-0  10839-2 0  9997,2 54079  53.2174 260.1222 0001661 108.7490 251.3682 15.08779963 32576,6918.064,95.441,541.078,538.78,0.0
54079.0,STARLINK-5175,PAYLOAD,2023-05-18 20:20:51,15.08848515,0.0001079,53.2167,259.5264,105.8396,254.2715,0.00010632,1.405e-05,0.0,0 STARLINK-5175,1 54079U 22136AE  23138.84782043  .00001405  00000-0  10632-3 0  9997,2 54079  53.2167 259.5264 0001079 105.8396 254.2715 15.08848515 32111,6917.854,95.437,540.466,538.973,0.0
54079.0,STARLINK-5175,PAYLOAD,2023-05-19 01:07:02,15.08829459,4.96e-05,53.2178,258.6358,117.7264,242.3778,6.7041e-05,7.79e-06,0.0,0 STARLINK-5175,1 54079U 22136AE  23139.04655163  .00000779  00000-0  67041-4 0  9992,2 54079  53.2178 258.6358 0000496 117.7264 242.3778 15.08829459 32624,6917.913,95.438,540.121,539.434,0.0
54079.0,STARLINK-5175,PAYLOAD,2023-05-19 12:14:43,15.08837079,8.71e-05,53.2174,256.554,99.5022,260.6069,0.00010873,1.443e-05,0.0,0 STARLINK-5175,1 54079U 22136AE  23139.51022995  .00001443  00000-0  10873-3 0  9994,2 54079  53.2174 256.5540 0000871  99.5022 260.6069 15.08837079 32696,6917.889,95.438,540.357,539.152,0.0
54079.0,STARLINK-5175,PAYLOAD,2023-05-20 00:57:48,15.08845012,9.63e-05,53.2165,254.1739,92.1056,268.0047,0.00012045,1.63e-05,0.0,0 STARLINK-5175,1 54079U 22136AE  23140.04014331  .00001630  00000-0  12045-3 0  9990,2 54079  53.2165 254.1739 0000963  92.1056 268.0047 15.08845012 32771,6917.865,95.437,540.396,539.064,0.0
54079.0,STARLINK-5175,PAYLOAD,2023-05-20 13:40:53,15.08856827,9.09e-05,53.215,251.7967,91.5442,268.5654,0.00034116,5.148e-05,0.0,0 STARLINK-5175,1 54079U 22136AE  23140.57005821  .00005148  00000-0  34116-3 0  9993,2 54079  53.2150 251.7967 0000909  91.5442 268.5654 15.08856827 32857,6917.829,95.436,540.323,539.065,0.0
54079.0,STARLINK-5175,PAYLOAD,2023-05-21 00:48:34,15.08855947,0.0001608,53.2142,249.7219,39.4574,320.6535,0.00022452,3.289e-05,0.0,0 STARLINK-5175,1 54079U 22136AE  23141.03373804  .00003289  00000-0  22452-3 0  9998,2 54079  53.2142 249.7219 0001608  39.4574 320.6535 15.08855947 32927,6917.832,95.437,540.809,538.584,0.0
54079.0,STARLINK-5175,PAYLOAD,2023-05-21 11:56:17,15.08837725,8.99e-05,53.2154,247.6336,74.1621,285.947,1.9495e-05,2.3e-07,0.0,0 STARLINK-5175,1 54079U 22136AE  23141.49742386  .00000023  00000-0  19495-4 0  9990,2 54079  53.2154 247.6336 0000899  74.1621 285.9470 15.08837725 32517,6917.887,95.438,540.374,539.13,0.0
54079.0,STARLINK-5175,PAYLOAD,2023-05-21 13:31:40,15.0883994,9.81e-05,53.2148,247.3375,67.3773,292.7323,5.381e-05,5.69e-06,0.0,0 STARLINK-5175,1 54079U 22136AE  23141.56366360  .00000569  00000-0  53810-4 0  9996,2 54079  53.2148 247.3375 0000981  67.3773 292.7323 15.08839940 33003,6917.881,95.438,540.424,539.067,0.0
54079.0,STARLINK-5175,PAYLOAD,2023-05-22 10:11:41,15.08837162,0.0001079,53.215,243.4705,76.1901,283.9211,3.9823e-05,3.46e-06,0.0,0 STARLINK-5175,1 54079U 22136AE  23142.42478695  .00000346  00000-0  39823-4 0  9998,2 54079  53.2150 243.4705 0001079  76.1901 283.9211 15.08837162 32652,6917.889,95.438,540.501,539.008,0.0
54079.0,STARLINK-5175,PAYLOAD,2023-05-22 13:22:27,15.08840302,0.0001027,53.2154,242.875,82.1172,277.9937,7.3885e-05,8.88e-06,0.0,0 STARLINK-5175,1 54079U 22136AE  23142.55726560  .00000888  00000-0  73885-4 0  9996,2 54079  53.2154 242.8750 0001027  82.1172 277.9937 15.08840302 32679,6917.879,95.438,540.455,539.034,0.0
54079.0,STARLINK-5175,PAYLOAD,2023-05-23 11:37:52,15.08837161,0.0001084,53.215,238.7125,75.2648,284.8464,0.00015508,2.181e-05,0.0,0 STARLINK-5175,1 54079U 22136AE  23143.48463038  .00002181  00000-0  15508-3 0  9992,2 54079  53.2150 238.7125 0001084  75.2648 284.8464 15.08837161 33299,6917.889,95.438,540.504,539.004,0.0
54079.0,STARLINK-5175,PAYLOAD,2023-05-23 13:13:15,15.08838645,0.0001075,53.215,238.4154,72.8177,287.2933,0.00016119,2.278e-05,0.0,0 STARLINK-5175,1 54079U 22136AE  23143.55086974  .00002278  00000-0  16119-3 0  9996,2 54079  53.2150 238.4154 0001075  72.8177 287.2933 15.08838645 32822,6917.885,95.438,540.493,539.006,0.0
54079.0,STARLINK-5175,PAYLOAD,2023-05-24 13:04:02,15.08838451,0.0001183,53.2162,233.9574,77.5624,282.55,9.6482e-05,1.248e-05,0.0,0 STARLINK-5175,1 54079U 22136AE  23144.54447177  .00001248  00000-0  96482-4 0  9990,2 54079  53.2162 233.9574 0001183  77.5624 282.5500 15.08838451 33453,6917.885,95.438,540.569,538.932,0.0
54079.0,STARLINK-5175,PAYLOAD,2023-05-26 00:02:31,15.08839192,0.0001049,53.2168,227.4148,86.4439,273.6673,0.0001108,1.476e-05,0.0,0 STARLINK-5175,1 54079U 22136AE  23146.00175337  .00001476  00000-0  11080-3 0  9992,2 54079  53.2168 227.4148 0001049  86.4439 273.6673 15.08839192 33677,6917.883,95.438,540.474,539.022,0.0
54079.0,STARLINK-5175,PAYLOAD,2023-05-26 12:45:36,15.08841483,0.0001044,53.2165,225.0357,85.9134,274.1977,8.6155e-05,1.084e-05,0.0,0 STARLINK-5175,1 54079U 22136AE  23146.53167266  .00001084  00000-0  86155-4 0  9993,2 54079  53.2165 225.0357 0001044  85.9134 274.1977 15.08841483 33276,6917.876,95.437,540.463,539.019,0.0
54079.0,STARLINK-5175,PAYLOAD,2023-05-27 04:39:28,15.08838645,0.0001076,53.2166,222.062,83.9312,276.1802,7.4178e-05,8.93e-06,0.0,0 STARLINK-5175,1 54079U 22136AE  23147.19407488  .00000893  00000-0  74178-4 0  9998,2 54079  53.2166 222.0620 0001076  83.9312 276.1802 15.08838645 33857,6917.885,95.438,540.494,539.005,0.0
54079.0,STARLINK-5175,PAYLOAD,2023-05-27 11:01:00,15.0883792,0.0001048,53.2165,220.8724,88.8154,271.2958,6.2283e-05,7.04e-06,0.0,0 STARLINK-5175,1 54079U 22136AE  23147.45903561  .00000704  00000-0  62283-4 0  9995,2 54079  53.2165 220.8724 0001048  88.8154 271.2958 15.08837920 33419,6917.887,95.438,540.477,539.027,0.0
54079.0,STARLINK-5175,PAYLOAD,2023-05-28 04:30:15,15.08838944,9.48e-05,53.2155,217.6002,82.7284,277.3816,4.8488e-05,4.84e-06,0.0,0 STARLINK-5175,1 54079U 22136AE  23148.18767586  .00000484  00000-0  48488-4 0  9997,2 54079  53.2155 217.6002 0000948  82.7284 277.3816 15.08838944 33525,6917.884,95.438,540.404,539.093,0.0
54079.0,STARLINK-5175,PAYLOAD,2023-05-28 10:51:47,15.08840752,9.53e-05,53.2156,216.411,80.9347,279.1753,5.8797e-05,6.48e-06,0.0,0 STARLINK-5175,1 54079U 22136AE  23148.45263439  .00000648  00000-0  58797-4 0  9991,2 54079  53.2156 216.4110 0000953  80.9347 279.1753 15.08840752 34047,6917.878,95.438,540.402,539.084,0.0
54079.0,STARLINK-5175,PAYLOAD,2023-05-29 10:42:33,15.08848457,9.46e-05,53.2154,211.9503,80.0089,280.101,0.00012602,1.719e-05,0.0,0 STARLINK-5175,1 54079U 22136AE  23149.44622595  .00001719  00000-0  12602-3 0  9997,2 54079  53.2154 211.9503 0000946  80.0089 280.1010 15.08848457 34191,6917.855,95.437,540.374,539.065,0.0
54079.0,STARLINK-5175,PAYLOAD,2023-05-30 08:57:58,15.08833887,0.0001059,53.2153,207.7876,73.6884,286.4225,1.102e-05,-1.12e-06,0.0,0 STARLINK-5175,1 54079U 22136AE  23150.37359838 -.00000112  00000-0  11020-4 0  9999,2 54079  53.2153 207.7876 0001059  73.6884 286.4225 15.08833887 34337,6917.899,95.438,540.497,539.031,0.0
54079.0,STARLINK-5175,PAYLOAD,2023-05-30 13:44:08,15.08835491,0.0001052,53.2154,206.8952,72.2995,287.8112,-8.0197e-06,-4.15e-06,0.0,0 STARLINK-5175,1 54079U 22136AE  23150.57231810 -.00000415  00000-0 -80197-5 0  9999,2 54079  53.2154 206.8952 0001052  72.2995 287.8112 15.08835491 33886,6917.894,95.438,540.487,539.031,0.0
54079.0,STARLINK-5175,PAYLOAD,2023-05-31 10:24:08,15.08842049,0.0001053,53.2157,203.03,90.2134,269.8979,1.5635e-05,-3.9e-07,0.0,0 STARLINK-5175,1 54079U 22136AE  23151.43343278 -.00000039  00000-0  15635-4 0  9992,2 54079  53.2157 203.0300 0001053  90.2134 269.8979 15.08842049 34497,6917.874,95.437,540.468,539.011,0.0
54079.0,STARLINK-5175,PAYLOAD,2023-05-31 19:56:27,15.08836123,0.0001001,53.2155,201.2452,82.452,277.6586,3.7571e-05,3.1e-06,0.0,0 STARLINK-5175,1 54079U 22136AE  23151.83087626  .00000310  00000-0  37571-4 0  9992,2 54079  53.2155 201.2452 0001001  82.4520 277.6586 15.08836123 34079,6917.892,95.438,540.45,539.065,0.0
54079.0,STARLINK-5175,PAYLOAD,2023-06-01 02:18:00,15.08832545,0.0001022,53.2155,200.0563,81.5424,278.5684,5.8767e-05,6.47e-06,0.0,0 STARLINK-5175,1 54079U 22136AE  23152.09583874  .00000647  00000-0  58767-4 0  9990,2 54079  53.2155 200.0563 0001022  81.5424 278.5684 15.08832545 34595,6917.903,95.438,540.475,539.061,0.0
54079.0,STARLINK-5175,PAYLOAD,2023-06-01 10:14:56,15.08834017,0.0001085,53.2162,198.569,85.1109,275.0007,7.1353e-05,8.48e-06,0.0,0 STARLINK-5175,1 54079U 22136AE  23152.42703913  .00000848  00000-0  71353-4 0  9994,2 54079  53.2162 198.5690 0001085  85.1109 275.0007 15.08834017 34164,6917.899,95.438,540.514,539.013,0.0
54079.0,STARLINK-5175,PAYLOAD,2023-06-01 19:47:15,15.08834749,0.0001123,53.2165,196.7849,86.0336,274.0785,5.7869e-05,6.33e-06,0.0,0 STARLINK-5175,1 54079U 22136AE  23152.82448076  .00000633  00000-0  57869-4 0  9992,2 54079  53.2165 196.7849 0001123  86.0336 274.0785 15.08834749 34229,6917.896,95.438,540.538,538.985,0.0
